{
  "type": "FeatureCollection",
  "features": [
    {
      "type": "Feature",
      "properties": {
        "norad_id": 41866,
        "name": "GOES 16",
        "group": "weather",
        "lat": -0.0663557119941914,
        "lon": -31.27486692897678,
        "alt_km": 35779.946621998446,
        "timestamp": "2025-12-23T22:42:32.620306+00:00",
        "meta_object_name": "GOES 16",
        "meta_object_id": "2016-071A",
        "meta_epoch": "2025-12-23T04:04:30.943776",
        "meta_mean_motion": 1.00271912,
        "meta_eccentricity": 0.0003084,
        "meta_inclination": 0.0731,
        "meta_ra_of_asc_node": 102.7517,
        "meta_arg_of_pericenter": 163.7646,
        "meta_mean_anomaly": 141.9111,
        "meta_ephemeris_type": 0,
        "meta_classification_type": "U",
        "meta_norad_cat_id": 41866,
        "meta_element_set_no": 999,
        "meta_rev_at_epoch": 3333,
        "meta_bstar": 0,
        "meta_mean_motion_dot": -7e-07,
        "meta_mean_motion_ddot": 0,
        "tle_line1": "1 41866U 16071A   25357.16980259 -.00000070  00000+0  00000+0 0  9998",
        "tle_line2": "2 41866   0.0731 102.7517 0003084 163.7646 141.9111  1.00271912 33332"
      },
      "geometry": {
        "type": "Point",
        "coordinates": [
          -31.27486692897678,
          -0.0663557119941914
        ]
      }
    },
    {
      "type": "Feature",
      "properties": {
        "norad_id": 41882,
        "name": "FENGYUN 4A",
        "group": "weather",
        "lat": 1.703173672803365,
        "lon": -163.0098456783705,
        "alt_km": 35771.265426438695,
        "timestamp": "2025-12-23T22:42:32.620325+00:00",
        "meta_object_name": "FENGYUN 4A",
        "meta_object_id": "2016-077A",
        "meta_epoch": "2025-12-23T08:35:04.981056",
        "meta_mean_motion": 1.00264066,
        "meta_eccentricity": 0.0004569,
        "meta_inclination": 1.8742,
        "meta_ra_of_asc_node": 82.3014,
        "meta_arg_of_pericenter": 143.3346,
        "meta_mean_anomaly": 118.943,
        "meta_ephemeris_type": 0,
        "meta_classification_type": "U",
        "meta_norad_cat_id": 41882,
        "meta_element_set_no": 999,
        "meta_rev_at_epoch": 3316,
        "meta_bstar": 0,
        "meta_mean_motion_dot": -3.37e-06,
        "meta_mean_motion_ddot": 0,
        "tle_line1": "1 41882U 16077A   25357.35769654 -.00000337  00000+0  00000+0 0  9993",
        "tle_line2": "2 41882   1.8742  82.3014 0004569 143.3346 118.9430  1.00264066 33167"
      },
      "geometry": {
        "type": "Point",
        "coordinates": [
          -163.0098456783705,
          1.703173672803365
        ]
      }
    },
    {
      "type": "Feature",
      "properties": {
        "norad_id": 41884,
        "name": "CYGFM05",
        "group": "weather",
        "lat": -34.903168167922075,
        "lon": -113.03479926989708,
        "alt_km": 417.34582239640076,
        "timestamp": "2025-12-23T22:42:32.620342+00:00",
        "meta_object_name": "CYGFM05",
        "meta_object_id": "2016-078A",
        "meta_epoch": "2025-12-23T04:30:42.842304",
        "meta_mean_motion": 15.48011044,
        "meta_eccentricity": 0.00107446,
        "meta_inclination": 34.9607,
        "meta_ra_of_asc_node": 338.8623,
        "meta_arg_of_pericenter": 273.8559,
        "meta_mean_anomaly": 86.0935,
        "meta_ephemeris_type": 0,
        "meta_classification_type": "U",
        "meta_norad_cat_id": 41884,
        "meta_element_set_no": 999,
        "meta_rev_at_epoch": 50138,
        "meta_bstar": 0.00038374175,
        "meta_mean_motion_dot": 0.00020735,
        "meta_mean_motion_ddot": 0,
        "tle_line1": "1 41884U 16078A   25357.18799586  .00020735  00000+0  38374-3 0  9996",
        "tle_line2": "2 41884  34.9607 338.8623 0010744 273.8559  86.0935 15.48011044501380"
      },
      "geometry": {
        "type": "Point",
        "coordinates": [
          -113.03479926989708,
          -34.903168167922075
        ]
      }
    },
    {
      "type": "Feature",
      "properties": {
        "norad_id": 41885,
        "name": "CYGFM04",
        "group": "weather",
        "lat": -34.64652937039445,
        "lon": -149.75497961173755,
        "alt_km": 411.63426361663915,
        "timestamp": "2025-12-23T22:42:32.620359+00:00",
        "meta_object_name": "CYGFM04",
        "meta_object_id": "2016-078B",
        "meta_epoch": "2025-12-23T06:07:44.144256",
        "meta_mean_motion": 15.50793567,
        "meta_eccentricity": 0.00094497,
        "meta_inclination": 34.9357,
        "meta_ra_of_asc_node": 312.8922,
        "meta_arg_of_pericenter": 298.7341,
        "meta_mean_anomaly": 61.2431,
        "meta_ephemeris_type": 0,
        "meta_classification_type": "U",
        "meta_norad_cat_id": 41885,
        "meta_element_set_no": 999,
        "meta_rev_at_epoch": 50157,
        "meta_bstar": 0.00038886279,
        "meta_mean_motion_dot": 0.00023186,
        "meta_mean_motion_ddot": 0,
        "tle_line1": "1 41885U 16078B   25357.25537204  .00023186  00000+0  38886-3 0  9993",
        "tle_line2": "2 41885  34.9357 312.8922 0009449 298.7341  61.2431 15.50793567501579"
      },
      "geometry": {
        "type": "Point",
        "coordinates": [
          -149.75497961173755,
          -34.64652937039445
        ]
      }
    },
    {
      "type": "Feature",
      "properties": {
        "norad_id": 41886,
        "name": "CYGFM02",
        "group": "weather",
        "lat": -15.097054135556844,
        "lon": -76.19068838495988,
        "alt_km": 404.08430432751356,
        "timestamp": "2025-12-23T22:42:32.620375+00:00",
        "meta_object_name": "CYGFM02",
        "meta_object_id": "2016-078C",
        "meta_epoch": "2025-12-23T04:18:07.828128",
        "meta_mean_motion": 15.52200124,
        "meta_eccentricity": 0.00110647,
        "meta_inclination": 34.9444,
        "meta_ra_of_asc_node": 311.5816,
        "meta_arg_of_pericenter": 299.4074,
        "meta_mean_anomaly": 60.5544,
        "meta_ephemeris_type": 0,
        "meta_classification_type": "U",
        "meta_norad_cat_id": 41886,
        "meta_element_set_no": 999,
        "meta_rev_at_epoch": 50169,
        "meta_bstar": 0.00040176789,
        "meta_mean_motion_dot": 0.00025224,
        "meta_mean_motion_ddot": 0,
        "tle_line1": "1 41886U 16078C   25357.17925727  .00025224  00000+0  40177-3 0  9997",
        "tle_line2": "2 41886  34.9444 311.5816 0011064 299.4074  60.5544 15.52200124501696"
      },
      "geometry": {
        "type": "Point",
        "coordinates": [
          -76.19068838495988,
          -15.097054135556844
        ]
      }
    },
    {
      "type": "Feature",
      "properties": {
        "norad_id": 41887,
        "name": "CYGFM01",
        "group": "weather",
        "lat": -10.989652077525365,
        "lon": -39.97098793373649,
        "alt_km": 418.1561738472237,
        "timestamp": "2025-12-23T22:42:32.620392+00:00",
        "meta_object_name": "CYGFM01",
        "meta_object_id": "2016-078D",
        "meta_epoch": "2025-12-23T04:13:36.205536",
        "meta_mean_motion": 15.48600258,
        "meta_eccentricity": 0.00104718,
        "meta_inclination": 34.9437,
        "meta_ra_of_asc_node": 341.2155,
        "meta_arg_of_pericenter": 266.1968,
        "meta_mean_anomaly": 93.7556,
        "meta_ephemeris_type": 0,
        "meta_classification_type": "U",
        "meta_norad_cat_id": 41887,
        "meta_element_set_no": 999,
        "meta_rev_at_epoch": 50132,
        "meta_bstar": 0.00038375397,
        "meta_mean_motion_dot": 0.00021169,
        "meta_mean_motion_ddot": 0,
        "tle_line1": "1 41887U 16078D   25357.17611349  .00021169  00000+0  38375-3 0  9991",
        "tle_line2": "2 41887  34.9437 341.2155 0010471 266.1968  93.7556 15.48600258501327"
      },
      "geometry": {
        "type": "Point",
        "coordinates": [
          -39.97098793373649,
          -10.989652077525365
        ]
      }
    },
    {
      "type": "Feature",
      "properties": {
        "norad_id": 41888,
        "name": "CYGFM08",
        "group": "weather",
        "lat": 34.11066413880213,
        "lon": 34.94839688462055,
        "alt_km": 417.09293316698677,
        "timestamp": "2025-12-23T22:42:32.620409+00:00",
        "meta_object_name": "CYGFM08",
        "meta_object_id": "2016-078E",
        "meta_epoch": "2025-12-23T05:22:02.761248",
        "meta_mean_motion": 15.49837046,
        "meta_eccentricity": 0.00117882,
        "meta_inclination": 34.9468,
        "meta_ra_of_asc_node": 323.7726,
        "meta_arg_of_pericenter": 289.5227,
        "meta_mean_anomaly": 70.4221,
        "meta_ephemeris_type": 0,
        "meta_classification_type": "U",
        "meta_norad_cat_id": 41888,
        "meta_element_set_no": 999,
        "meta_rev_at_epoch": 50156,
        "meta_bstar": 0.00038341627,
        "meta_mean_motion_dot": 0.00022113,
        "meta_mean_motion_ddot": 0,
        "tle_line1": "1 41888U 16078E   25357.22364307  .00022113  00000+0  38342-3 0  9991",
        "tle_line2": "2 41888  34.9468 323.7726 0011788 289.5227  70.4221 15.49837046501565"
      },
      "geometry": {
        "type": "Point",
        "coordinates": [
          34.94839688462055,
          34.11066413880213
        ]
      }
    }
  ]
}